[
    {
        "Altitude(m)": 612513.9425064442,
        "Argument of Periapsis(deg)": 0.0,
        "Eccentricity": 0.0,
        "Inclination(deg)": 60.0,
        "Latitude(deg)": -28.13599851642017,
        "Longitude(deg)": -147.08693313024938,
        "Mean Anomaly(deg)": 212.72730000000004,
        "RAAN(deg)": 114.99999999999999,
        "Satellite Name": "Test1 519",
        "Satellite Number": 519,
        "Semi-Major Axis(m)": 6980739.136638005,
        "Time(s)": 0
    },
    {
        "Altitude(m)": 612708.3107859376,
        "Argument of Periapsis(deg)": 0.00010418945913296404,
        "Eccentricity": 0.0,
        "Inclination(deg)": 60.0,
        "Latitude(deg)": -28.647738236721267,
        "Longitude(deg)": -146.72970367014548,
        "Mean Anomaly(deg)": 213.34740614546183,
        "RAAN(deg)": 114.99957995086024,
        "Satellite Name": "Test1 519",
        "Satellite Number": 519,
        "Semi-Major Axis(m)": 6980739.136638005,
        "Time(s)": 10
    }
]